[{"OBJECT_NAME":"STARLINK-34280","OBJECT_ID":"2025-137A","EPOCH":"2026-03-09T22:36:04.714272","MEAN_MOTION":15.30212268,"ECCENTRICITY":0.00014065,"INCLINATION":53.159,"RA_OF_ASC_NODE":334.0621,"ARG_OF_PERICENTER":147.1912,"MEAN_ANOMALY":212.9177,"EPHEMERIS_TYPE":0,"CLASSIFICATION_TYPE":"U","NORAD_CAT_ID":64594,"ELEMENT_SET_NO":999,"REV_AT_EPOCH":4077,"BSTAR":0.00095608936,"MEAN_MOTION_DOT":0.00028075,"MEAN_MOTION_DDOT":0},{"OBJECT_NAME":"IRIDIUM 45","OBJECT_ID":"1997-082A","EPOCH":"2026-03-09T19:43:04.689120","MEAN_MOTION":15.36676082,"ECCENTRICITY":0.00899413,"INCLINATION":86.3479,"RA_OF_ASC_NODE":277.5722,"ARG_OF_PERICENTER":47.6509,"MEAN_ANOMALY":313.2314,"EPHEMERIS_TYPE":0,"CLASSIFICATION_TYPE":"U","NORAD_CAT_ID":25104,"ELEMENT_SET_NO":999,"REV_AT_EPOCH":49262,"BSTAR":0.00064625537,"MEAN_MOTION_DOT":0.00026618,"MEAN_MOTION_DDOT":0}]
